COSMOS 2058             
1 20465U 90010A   26066.19838804  .00004969  00000+0  29327-3 0  9991
2 20465  82.4672  49.8823 0009590 351.9384   8.1690 15.11292739941860
SL-14 R/B               
1 20466U 90010B   26066.05647985  .00000471  00000+0  54152-4 0  9994
2 20466  82.4989 269.8630 0018695 311.5905  48.3707 14.83565839928096
SL-14 R/B               
1 20511U 90018B   26065.93676910  .00000644  00000+0  77717-4 0  9993
2 20511  82.5197 225.6628 0017638 100.3707 259.9496 14.82140967922174
HST                     
1 20580U 90037B   26066.07173350  .00008800  00000+0  29166-3 0  9992
2 20580  28.4710  57.8566 0001811 100.2255 259.8544 15.29432288772919
SL-16 R/B               
1 20625U 90046B   26066.08159335 -.00000248  00000+0 -10331-3 0  9994
2 20625  70.9992 303.3924 0016212 303.1052  56.8514 14.15013323848027
COSMOS 2084             
1 20663U 90055A   26066.13178480  .00003059  00000+0  22415-3 0  9991
2 20663  62.7925 344.3021 0017446 189.2784 170.7997 15.05631560935939
SL-6 R/B(2)             
1 20666U 90055D   26065.97791483  .00002277  00000+0  17946-3 0  9993
2 20666  62.7821 263.0729 0024295 346.3598  13.6841 15.03577653937786
SL-8 R/B                
1 20775U 90078B   26066.02209157  .00016688  00000+0  49097-3 0  9991
2 20775  82.8998 253.7106 0362913  22.9600 338.7382 14.88950066808900
SL-8 R/B                
1 21088U 91006B   26065.56358377  .00000084  00000+0  68620-4 0  9995
2 21088  82.9466 172.3698 0023261  46.8205 324.6837 13.77493784763643
OKEAN-3                 
1 21397U 91039A   26066.15216771  .00003831  00000+0  26918-3 0  9997
2 21397  82.5191 339.3014 0014105 347.6370  12.4508 15.04779717864651
COSMOS 2151             
1 21422U 91042A   26066.14859546  .00001947  00000+0  15380-3 0  9999
2 21422  82.4929  86.1280 0014016  71.4106 288.8638 15.00092848862818
SL-14 R/B               
1 21423U 91042B   26065.92165510  .00000607  00000+0  73762-4 0  9997
2 21423  82.4917 222.7779 0015676 248.4858 111.4686 14.81825769852660
